NORAD_CAT_ID,OBJECT_NAME,OBJECT_TYPE,EPOCH,MEAN_MOTION,ECCENTRICITY,INCLINATION,RA_OF_ASC_NODE,ARG_OF_PERICENTER,MEAN_ANOMALY,BSTAR,MEAN_MOTION_DOT,MEAN_MOTION_DDOT,TLE_LINE0,TLE_LINE1,TLE_LINE2,SEMIMAJOR_AXIS,PERIOD,APOGEE,PERIGEE,DECAYED
54062.0,STARLINK-5170,PAYLOAD,2023-03-19 06:45:10,15.08840849,8.55e-05,53.2157,181.1682,77.6567,282.4521,-0.00020108,-3.486e-05,0.0,0 STARLINK-5170,1 54062U 22136M   23078.28136914 -.00003486  00000-0 -20108-3 0  9992,2 54062  53.2157 181.1682 0000855  77.6567 282.4521 15.08840849 23315,6917.878,95.438,540.334,539.151,0.0
54062.0,STARLINK-5170,PAYLOAD,2023-03-19 13:06:42,15.0885294,0.0001294,53.2154,179.9764,96.1178,263.9962,0.00014535,2.027e-05,0.0,0 STARLINK-5170,1 54062U 22136M   23078.54632561  .00002027  00000-0  14535-3 0  9995,2 54062  53.2154 179.9764 0001294  96.1178 263.9962 15.08852940 23352,6917.841,95.437,540.601,538.811,0.0
54062.0,STARLINK-5170,PAYLOAD,2023-03-19 17:52:51,15.08861398,0.0001417,53.2155,179.0841,94.8166,265.2988,0.00038535,5.854e-05,0.0,0 STARLINK-5170,1 54062U 22136M   23078.74504228  .00005854  00000-0  38535-3 0  9992,2 54062  53.2155 179.0841 0001417  94.8166 265.2988 15.08861398 22909,6917.815,95.436,540.66,538.7,0.0
54062.0,STARLINK-5170,PAYLOAD,2023-03-20 00:14:24,15.08845978,0.0001191,53.216,177.8961,91.2773,268.8355,5.4978e-05,5.87e-06,0.0,0 STARLINK-5170,1 54062U 22136M   23079.01000540  .00000587  00000-0  54978-4 0  9999,2 54062  53.2160 177.8961 0001191  91.2773 268.8355 15.08845978 23429,6917.862,95.437,540.551,538.903,0.0
54062.0,STARLINK-5170,PAYLOAD,2023-03-20 12:57:29,15.08848121,0.0001426,53.2159,175.5156,101.3358,258.7794,0.00052552,8.087e-05,0.0,0 STARLINK-5170,1 54062U 22136M   23079.53992682  .00008087  00000-0  52552-3 0  9991,2 54062  53.2159 175.5156 0001426 101.3358 258.7794 15.08848121 23025,6917.856,95.437,540.707,538.734,0.0
54062.0,STARLINK-5170,PAYLOAD,2023-03-20 17:43:38,15.08860236,0.0001502,53.216,174.624,101.8411,258.275,0.0010896,0.00017105,0.0,0 STARLINK-5170,1 54062U 22136M   23079.73864478  .00017105  00000-0  10896-2 0  9999,2 54062  53.2160 174.6240 0001502 101.8411 258.2750 15.08860236 23052,6917.819,95.436,540.723,538.644,0.0
54062.0,STARLINK-5170,PAYLOAD,2023-03-21 12:48:16,15.08861118,0.0001483,53.2163,171.0565,98.266,261.85,0.0017388,0.00027509,0.0,0 STARLINK-5170,1 54062U 22136M   23080.53352581  .00027509  00000-0  17388-2 0  9998,2 54062  53.2163 171.0565 0001483  98.2660 261.8500 15.08861118 23175,6917.816,95.436,540.707,538.655,0.0
54062.0,STARLINK-5170,PAYLOAD,2023-03-21 22:20:35,15.08853111,0.0001936,53.2162,169.2721,72.5222,287.5982,0.0015822,0.00024992,0.0,0 STARLINK-5170,1 54062U 22136M   23080.93096680  .00024992  00000-0  15822-2 0  9991,2 54062  53.2162 169.2721 0001936  72.5222 287.5982 15.08853111 23712,6917.84,95.437,541.045,538.366,0.0
54062.0,STARLINK-5170,PAYLOAD,2023-03-22 11:03:40,15.08842568,0.0001088,53.2164,166.893,76.026,284.0853,0.0016405,0.00025919,0.0,0 STARLINK-5170,1 54062U 22136M   23081.46088744  .00025919  00000-0  16405-2 0  9990,2 54062  53.2164 166.8930 0001088  76.0260 284.0853 15.08842568 23799,6917.873,95.437,540.49,538.985,0.0
54062.0,STARLINK-5170,PAYLOAD,2023-03-22 17:25:13,15.08857095,0.00012,53.2163,165.7041,83.5571,276.5557,0.0017793,0.00028156,0.0,0 STARLINK-5170,1 54062U 22136M   23081.72584513  .00028156  00000-0  17793-2 0  9991,2 54062  53.2163 165.7041 0001200  83.5571 276.5557 15.08857095 23353,6917.828,95.436,540.523,538.863,0.0
54062.0,STARLINK-5170,PAYLOAD,2023-03-23 12:29:50,15.088527,0.0001148,53.2158,162.1353,94.2298,265.8825,0.0018349,0.00029045,0.0,0 STARLINK-5170,1 54062U 22136M   23082.52072826  .00029045  00000-0  18349-2 0  9995,2 54062  53.2158 162.1353 0001148  94.2298 265.8825 15.08852700 23953,6917.842,95.437,540.501,538.912,0.0
54062.0,STARLINK-5170,PAYLOAD,2023-03-23 22:02:09,15.088563,0.0001464,53.2167,160.3533,71.8015,288.3137,0.0014931,0.00023565,0.0,0 STARLINK-5170,1 54062U 22136M   23082.91816899  .00023565  00000-0  14931-2 0  9998,2 54062  53.2167 160.3533 0001464  71.8015 288.3137 15.08856300 23532,6917.831,95.437,540.708,538.683,0.0
54062.0,STARLINK-5170,PAYLOAD,2023-03-24 12:20:37,15.08863946,0.0001145,53.2154,157.6757,77.3385,282.7735,0.0027508,0.00043792,0.0,0 STARLINK-5170,1 54062U 22136M   23083.51432809  .00043792  00000-0  27508-2 0  9998,2 54062  53.2154 157.6757 0001145  77.3385 282.7735 15.08863946 24102,6917.807,95.436,540.464,538.88,0.0
54062.0,STARLINK-5170,PAYLOAD,2023-03-24 21:52:56,15.08807274,2.26e-05,53.2157,155.8921,86.6652,273.4366,-0.0023598,-0.00037613,0.0,0 STARLINK-5170,1 54062U 22136M   23083.91176909 -.00037613  00000-0 -23598-2 0  9990,2 54062  53.2157 155.8921 0000226  86.6652 273.4366 15.08807274 23688,6917.98,95.44,540.002,539.689,0.0
54062.0,STARLINK-5170,PAYLOAD,2023-03-25 12:11:27,15.08799731,0.0001666,53.2144,153.2153,71.2769,288.8404,0.0016111,0.00025417,0.0,0 STARLINK-5170,1 54062U 22136M   23084.50795589  .00025417  00000-0  16111-2 0  9997,2 54062  53.2144 153.2153 0001666  71.2769 288.8404 15.08799731 24256,6918.003,95.44,541.021,538.716,0.0
54062.0,STARLINK-5170,PAYLOAD,2023-03-25 21:43:46,15.08833552,0.0001814,53.2148,151.4304,71.0477,289.0711,0.0022679,0.00035984,0.0,0 STARLINK-5170,1 54062U 22136M   23084.90540113  .00035984  00000-0  22679-2 0  9998,2 54062  53.2148 151.4304 0001814  71.0477 289.0711 15.08833552 23834,6917.9,95.438,541.02,538.51,0.0
54062.0,STARLINK-5170,PAYLOAD,2023-03-26 04:05:18,15.08859322,0.0001691,53.214,150.2411,69.0981,291.0192,0.0024914,0.00039607,0.0,0 STARLINK-5170,1 54062U 22136M   23085.17035847  .00039607  00000-0  24914-2 0  9991,2 54062  53.2140 150.2411 0001691  69.0981 291.0192 15.08859322 24359,6917.821,95.436,540.856,538.517,0.0
54062.0,STARLINK-5170,PAYLOAD,2023-03-26 21:34:32,15.0887292,0.0002299,53.2134,146.9731,58.142,301.9795,0.0011816,0.00018584,0.0,0 STARLINK-5170,1 54062U 22136M   23085.89898834  .00018584  00000-0  11816-2 0  9991,2 54062  53.2134 146.9731 0002299  58.1420 301.9795 15.08872920 23988,6917.78,95.435,541.235,538.054,0.0
54062.0,STARLINK-5170,PAYLOAD,2023-03-27 03:56:04,15.0886721,0.0002381,53.2141,145.7832,69.8036,290.3212,0.00064157,9.945e-05,0.0,0 STARLINK-5170,1 54062U 22136M   23086.16394541  .00009945  00000-0  64157-3 0  9996,2 54062  53.2141 145.7832 0002381  69.8036 290.3212 15.08867210 24509,6917.797,95.436,541.309,538.015,0.0
54062.0,STARLINK-5170,PAYLOAD,2023-03-27 10:17:37,15.0886054,0.0002265,53.2148,144.593,64.9986,295.1241,0.00024176,3.564e-05,0.0,0 STARLINK-5170,1 54062U 22136M   23086.42890343  .00003564  00000-0  24176-3 0  9994,2 54062  53.2148 144.5930 0002265  64.9986 295.1241 15.08860540 24541,6917.818,95.436,541.249,538.116,0.0
54062.0,STARLINK-5170,PAYLOAD,2023-03-27 21:25:18,15.08862932,0.0002418,53.2161,142.5124,65.153,294.9714,0.00024246,3.575e-05,0.0,0 STARLINK-5170,1 54062U 22136M   23086.89257767  .00003575  00000-0  24246-3 0  9992,2 54062  53.2161 142.5124 0002418  65.1530 294.9714 15.08862932 24131,6917.81,95.436,541.348,538.003,0.0
54062.0,STARLINK-5170,PAYLOAD,2023-03-28 03:46:51,15.08848371,0.0002081,53.2141,141.3214,69.0205,291.101,-2.5711e-05,-6.98e-06,0.0,0 STARLINK-5170,1 54062U 22136M   23087.15754139 -.00000698  00000-0 -25711-4 0  9991,2 54062  53.2141 141.3214 0002081  69.0205 291.1010 15.08848371 24650,6917.855,95.437,541.159,538.28,0.0
54062.0,STARLINK-5170,PAYLOAD,2023-03-28 10:08:23,15.08850023,0.0001915,53.2154,140.1315,77.2548,282.8658,-2.6207e-05,-7.05e-06,0.0,0 STARLINK-5170,1 54062U 22136M   23087.42249983 -.00000705  00000-0 -26207-4 0  9997,2 54062  53.2154 140.1315 0001915  77.2548 282.8658 15.08850023 24213,6917.85,95.437,541.04,538.39,0.0
54062.0,STARLINK-5170,PAYLOAD,2023-03-29 06:48:24,15.08846029,0.0001759,53.2155,136.2652,81.3199,278.7992,3.03e-05,1.94e-06,0.0,0 STARLINK-5170,1 54062U 22136M   23088.28361756  .00000194  00000-0  30300-4 0  9994,2 54062  53.2155 136.2652 0001759  81.3199 278.7992 15.08846029 24821,6917.862,95.437,540.944,538.51,0.0
54062.0,STARLINK-5170,PAYLOAD,2023-03-29 11:34:33,15.08850435,0.0001932,53.2164,135.3731,91.2416,268.8798,5.2138e-05,5.42e-06,0.0,0 STARLINK-5170,1 54062U 22136M   23088.48233431  .00000542  00000-0  52138-4 0  9994,2 54062  53.2164 135.3731 0001932  91.2416 268.8798 15.08850435 24374,6917.848,95.437,541.05,538.377,0.0
54062.0,STARLINK-5170,PAYLOAD,2023-03-29 19:31:29,15.08840861,0.0001841,53.2168,133.889,98.79,261.3301,-8.8333e-05,-1.694e-05,0.0,0 STARLINK-5170,1 54062U 22136M   23088.81353716 -.00001694  00000-0 -88333-4 0  9997,2 54062  53.2168 133.8890 0001841  98.7900 261.3301 15.08840861 24422,6917.878,95.438,541.016,538.469,0.0
54062.0,STARLINK-5170,PAYLOAD,2023-03-30 03:28:25,15.08838267,0.0001806,53.2171,132.4001,93.4947,266.6252,8.3704e-06,-1.55e-06,0.0,0 STARLINK-5170,1 54062U 22136M   23089.14474013 -.00000155  00000-0  83704-5 0  9996,2 54062  53.2171 132.4001 0001806  93.4947 266.6252 15.08838267 24957,6917.886,95.438,541.0,538.501,0.0
54062.0,STARLINK-5170,PAYLOAD,2023-03-30 19:22:17,15.08839754,0.0001787,53.2175,129.4266,95.0325,265.0871,6.1363e-05,6.89e-06,0.0,0 STARLINK-5170,1 54062U 22136M   23089.80714258  .00000689  00000-0  61363-4 0  9994,2 54062  53.2175 129.4266 0001787  95.0325 265.0871 15.08839754 24576,6917.881,95.438,540.982,538.51,0.0
54062.0,STARLINK-5170,PAYLOAD,2023-03-31 12:51:31,15.08844791,0.0001873,53.2176,126.1549,98.7704,261.35,9.2029e-05,1.177e-05,0.0,0 STARLINK-5170,1 54062U 22136M   23090.53577995  .00001177  00000-0  92029-4 0  9997,2 54062  53.2176 126.1549 0001873  98.7704 261.3500 15.08844791 25163,6917.866,95.437,541.026,538.435,0.0
54062.0,STARLINK-5170,PAYLOAD,2023-04-01 03:10:00,15.08833577,0.0001583,53.2165,123.4785,99.1974,260.9197,3.6082e-05,2.86e-06,0.0,0 STARLINK-5170,1 54062U 22136M   23091.13194543  .00000286  00000-0  36082-4 0  9995,2 54062  53.2165 123.4785 0001583  99.1974 260.9197 15.08833577 25252,6917.9,95.438,540.86,538.67,0.0
